ORBCOMM FM15            
1 25418U 98046F   25310.78536912  .00001775  00000+0  61529-3 0  9994
2 25418  44.9963 221.0326 0005272 310.2536  49.7851 14.39000861424780
ORBCOMM FM13            
1 25420U 98046H   25310.79890646  .00001615  00000+0  57489-3 0  9998
2 25420  44.9969 228.1833 0005935 288.9776  71.0429 14.38062117423760
ORBCOMM FM21            
1 25475U 98053A   25310.21438502  .00001254  00000+0  46035-3 0  9996
2 25475  45.0091 316.7569 0003358 255.2185 104.8291 14.37674989417687
ORBCOMM FM22            
1 25476U 98053B   25310.00576405  .00001559  00000+0  54796-3 0  9990
2 25476  45.0081 311.4108 0004751 244.8162 115.2194 14.38819416417691
ORBCOMM FM23            
1 25477U 98053C   25310.47334869  .00001455  00000+0  52424-3 0  9999
2 25477  45.0089 317.4349 0004102 245.4281 114.6140 14.37899249417877
